[{"OBJECT_NAME":"STARLINK-6221","OBJECT_ID":"2023-064AN","EPOCH":"2026-03-09T13:43:58.315008","MEAN_MOTION":14.98334735,"ECCENTRICITY":0.0003403,"INCLINATION":69.999,"RA_OF_ASC_NODE":124.6773,"ARG_OF_PERICENTER":267.1667,"MEAN_ANOMALY":92.9103,"EPHEMERIS_TYPE":0,"CLASSIFICATION_TYPE":"U","NORAD_CAT_ID":56484,"ELEMENT_SET_NO":999,"REV_AT_EPOCH":15571,"BSTAR":4.6007e-5,"MEAN_MOTION_DOT":4.56e-6,"MEAN_MOTION_DDOT":0},{"OBJECT_NAME":"OV1-10 R\/B","OBJECT_ID":"1966-111C","EPOCH":"2026-03-09T17:10:30.494208","MEAN_MOTION":14.85448079,"ECCENTRICITY":0.00582808,"INCLINATION":93.4003,"RA_OF_ASC_NODE":162.682,"ARG_OF_PERICENTER":65.7943,"MEAN_ANOMALY":294.9357,"EPHEMERIS_TYPE":0,"CLASSIFICATION_TYPE":"U","NORAD_CAT_ID":2621,"ELEMENT_SET_NO":999,"REV_AT_EPOCH":15959,"BSTAR":0.00014045213,"MEAN_MOTION_DOT":1.241e-5,"MEAN_MOTION_DDOT":0}]
